CCSDS_OMM_VERS,COMMENT,CREATION_DATE,ORIGINATOR,OBJECT_NAME,OBJECT_ID,CENTER_NAME,REF_FRAME,TIME_SYSTEM,MEAN_ELEMENT_THEORY,EPOCH,MEAN_MOTION,ECCENTRICITY,INCLINATION,RA_OF_ASC_NODE,ARG_OF_PERICENTER,MEAN_ANOMALY,EPHEMERIS_TYPE,CLASSIFICATION_TYPE,NORAD_CAT_ID,ELEMENT_SET_NO,REV_AT_EPOCH,BSTAR,MEAN_MOTION_DOT,MEAN_MOTION_DDOT,SEMIMAJOR_AXIS,PERIOD,APOAPSIS,PERIAPSIS,OBJECT_TYPE,RCS_SIZE,COUNTRY_CODE,LAUNCH_DATE,SITE,DECAY_DATE,FILE,GP_ID,TLE_LINE0,TLE_LINE1,TLE_LINE2
"2.0","GENERATED VIA SPACE-TRACK.ORG API","2013-12-13T15:22:01","18 SPCS","PAYLOAD B","2013-037B","EARTH","TEME","UTC","SGP4","2013-12-13T12:19:49.190591","14.67316463","0.00034170","98.0503","2.6704","254.6410","105.4414","0","U","39209","999","2148","0.00013361000000","0.00000706","0.0000000000000","7047.789","98.138","672.062","667.246","PAYLOAD","LARGE","PRC","2013-07-19","TSC","","1597621","94606140","0 PAYLOAD B","1 39209U 13037B   13347.51376378  .00000706  00000-0  13361-3 0  9995","2 39209 098.0503 002.6704 0003417 254.6410 105.4414 14.67316463 21481"
"2.0","GENERATED VIA SPACE-TRACK.ORG API","2013-12-13T15:45:13","18 SPCS","PAYLOAD A","2013-037A","EARTH","TEME","UTC","SGP4","2013-12-13T13:38:41.810208","14.67956579","0.00072770","98.0507","2.9171","264.0381","96.0013","0","U","39208","999","2151","0.00012653000000","0.00000676","0.0000000000000","7045.740","98.095","672.732","662.478","PAYLOAD","LARGE","PRC","2013-07-19","TSC","","1597645","94606519","0 PAYLOAD A","1 39208U 13037A   13347.56853947  .00000676  00000-0  12653-3 0  9990","2 39208 098.0507 002.9171 0007277 264.0381 096.0013 14.67956579 21517"
"2.0","GENERATED VIA SPACE-TRACK.ORG API","2013-12-13T22:30:27","18 SPCS","PAYLOAD A","2013-037A","EARTH","TEME","UTC","SGP4","2013-12-13T18:33:09.577728","14.67956313","0.00073170","98.0505","3.1182","262.6195","97.4167","0","U","39208","999","2154","0.00010824000000","0.00000571","0.0000000000000","7045.741","98.095","672.761","662.451","PAYLOAD","LARGE","PRC","2013-07-19","TSC","","1597723","94607178","0 PAYLOAD A","1 39208U 13037A   13347.77302752  .00000571  00000-0  10824-3 0  9998","2 39208 098.0505 003.1182 0007317 262.6195 097.4167 14.67956313 21546"
"2.0","GENERATED VIA SPACE-TRACK.ORG API","2013-12-13T23:40:36","18 SPCS","PAYLOAD C","2013-037C","EARTH","TEME","UTC","SGP4","2013-12-13T20:03:34.939584","14.95178313","0.00319400","97.6902","2.9777","270.5819","89.1750","0","U","39210","999","2187","0.00008073700000","0.00000836","0.0000000000000","6959.960","96.309","604.055","559.595","PAYLOAD","LARGE","PRC","2013-07-19","TSC","","1597824","94609377","0 PAYLOAD C","1 39210U 13037C   13347.83582106  .00000836  00000-0  80737-4 0  9996","2 39210 097.6902 002.9777 0031940 270.5819 089.1750 14.95178313 21871"
"2.0","GENERATED VIA SPACE-TRACK.ORG API","2013-12-13T23:38:57","18 SPCS","PAYLOAD B","2013-037B","EARTH","TEME","UTC","SGP4","2013-12-13T20:30:48.425759","14.67316136","0.00034190","98.0499","3.0051","251.7013","108.3825","0","U","39209","999","2153","0.00010966000000","0.00000571","0.0000000000000","7047.790","98.138","672.065","667.245","PAYLOAD","LARGE","PRC","2013-07-19","TSC","","1597822","94609331","0 PAYLOAD B","1 39209U 13037B   13347.85472715  .00000571  00000-0  10966-3 0  9992","2 39209 098.0499 003.0051 0003419 251.7013 108.3825 14.67316136 21535"
"2.0","GENERATED VIA SPACE-TRACK.ORG API","2013-12-14T06:29:00","18 SPCS","PAYLOAD A","2013-037A","EARTH","TEME","UTC","SGP4","2013-12-14T02:43:55.936703","14.67956487","0.00073250","98.0504","3.4532","261.4066","98.6307","0","U","39208","999","2159","0.00009849600000","0.00000516","0.0000000000000","7045.740","98.095","672.766","662.444","PAYLOAD","LARGE","PRC","2013-07-19","TSC","","1597939","94610244","0 PAYLOAD A","1 39208U 13037A   13348.11384186  .00000516  00000-0  98496-4 0  9999","2 39208 098.0504 003.4532 0007325 261.4066 098.6307 14.67956487 21596"
"2.0","GENERATED VIA SPACE-TRACK.ORG API","2013-12-14T07:36:25","18 SPCS","PAYLOAD C","2013-037C","EARTH","TEME","UTC","SGP4","2013-12-14T04:05:25.715328","14.95179348","0.00319350","97.6901","3.3060","269.4478","90.3091","0","U","39210","999","2192","0.00008638000000","0.00000899","0.0000000000000","6959.957","96.309","604.049","559.595","PAYLOAD","LARGE","PRC","2013-07-19","TSC","","1598025","94612362","0 PAYLOAD C","1 39210U 13037C   13348.17043652  .00000899  00000-0  86380-4 0  9991","2 39210 097.6901 003.3060 0031935 269.4478 090.3091 14.95179348 21929"
"2.0","GENERATED VIA SPACE-TRACK.ORG API","2013-12-14T07:34:50","18 SPCS","PAYLOAD B","2013-037B","EARTH","TEME","UTC","SGP4","2013-12-14T04:41:47.572800","14.67316941","0.00034340","98.0499","3.3402","250.5909","109.4935","0","U","39209","999","2158","0.00012040000000","0.00000632","0.0000000000000","7047.787","98.138","672.073","667.232","PAYLOAD","LARGE","PRC","2013-07-19","TSC","","1598023","94612321","0 PAYLOAD B","1 39209U 13037B   13348.19568950  .00000632  00000-0  12040-3 0  9990","2 39209 098.0499 003.3402 0003434 250.5909 109.4935 14.67316941 21589"
"2.0","GENERATED VIA SPACE-TRACK.ORG API","2013-12-14T15:33:10","18 SPCS","PAYLOAD B","2013-037B","EARTH","TEME","UTC","SGP4","2013-12-14T11:14:34.866240","14.67317980","0.00034120","98.0500","3.6087","249.3343","110.7515","0","U","39209","999","2162","0.00014098000000","0.00000748","0.0000000000000","7047.784","98.138","672.054","667.244","PAYLOAD","LARGE","PRC","2013-07-19","TSC","","1598146","94615032","0 PAYLOAD B","1 39209U 13037B   13348.46845910  .00000748  00000-0  14098-3 0  9997","2 39209 098.0500 003.6087 0003412 249.3343 110.7515 14.67317980 21626"
"2.0","GENERATED VIA SPACE-TRACK.ORG API","2013-12-14T15:33:28","18 SPCS","PAYLOAD C","2013-037C","EARTH","TEME","UTC","SGP4","2013-12-14T12:07:16.483296","14.95179969","0.00318990","97.6900","3.6341","268.2227","91.5339","0","U","39210","999","2197","0.00008413500000","0.00000874","0.0000000000000","6959.955","96.309","604.022","559.619","PAYLOAD","LARGE","PRC","2013-07-19","TSC","","1598147","94615062","0 PAYLOAD C","1 39210U 13037C   13348.50505189  .00000874  00000-0  84135-4 0  9995","2 39210 097.6900 003.6341 0031899 268.2227 091.5339 14.95179969 21973"
"2.0","GENERATED VIA SPACE-TRACK.ORG API","2013-12-14T14:28:05","18 SPCS","PAYLOAD A","2013-037A","EARTH","TEME","UTC","SGP4","2013-12-14T12:32:51.547776","14.67956800","0.00073370","98.0504","3.8553","260.1739","99.8637","0","U","39208","999","2165","0.00009412800000","0.00000491","0.0000000000000","7045.739","98.095","672.774","662.435","PAYLOAD","LARGE","PRC","2013-07-19","TSC","","1598064","94613104","0 PAYLOAD A","1 39208U 13037A   13348.52281884  .00000491  00000-0  94128-4 0  9995","2 39208 098.0504 003.8553 0007337 260.1739 099.8637 14.67956800 21654"
"2.0","GENERATED VIA SPACE-TRACK.ORG API","2013-12-14T14:56:55","18 SPCS","PAYLOAD A","2013-037A","EARTH","TEME","UTC","SGP4","2013-12-14T14:11:00.814560","14.67956469","0.00072930","98.0503","3.9223","260.2993","99.7359","0","U","39208","999","2166","0.00008288900000","0.00000426","0.0000000000000","7045.740","98.095","672.744","662.467","PAYLOAD","LARGE","PRC","2013-07-19","TSC","","1598101","94613976","0 PAYLOAD A","1 39208U 13037A   13348.59098165  .00000426  00000-0  82889-4 0  9999","2 39208 098.0503 003.9223 0007293 260.2993 099.7359 14.67956469 21664"
"2.0","GENERATED VIA SPACE-TRACK.ORG API","2013-12-14T23:37:01","18 SPCS","PAYLOAD B","2013-037B","EARTH","TEME","UTC","SGP4","2013-12-14T19:25:34.015008","14.67317927","0.00034000","98.0499","3.9436","247.7568","112.3276","0","U","39209","999","2167","0.00012333000000","0.00000648","0.0000000000000","7047.784","98.138","672.046","667.253","PAYLOAD","LARGE","PRC","2013-07-19","TSC","","1598345","94618146","0 PAYLOAD B","1 39209U 13037B   13348.80942147  .00000648  00000-0  12333-3 0  9994","2 39209 098.0499 003.9436 0003400 247.7568 112.3276 14.67317927 21670"
"2.0","GENERATED VIA SPACE-TRACK.ORG API","2013-12-14T23:37:18","18 SPCS","PAYLOAD C","2013-037C","EARTH","TEME","UTC","SGP4","2013-12-14T20:09:07.294463","14.95180628","0.00319120","97.6900","3.9623","267.0384","92.7201","0","U","39210","999","2202","0.00008527800000","0.00000887","0.0000000000000","6959.953","96.309","604.029","559.608","PAYLOAD","LARGE","PRC","2013-07-19","TSC","","1598346","94618186","0 PAYLOAD C","1 39210U 13037C   13348.83966776  .00000887  00000-0  85278-4 0  9997","2 39210 097.6900 003.9623 0031912 267.0384 092.7201 14.95180628 22028"
"2.0","GENERATED VIA SPACE-TRACK.ORG API","2013-12-14T22:28:29","18 SPCS","PAYLOAD A","2013-037A","EARTH","TEME","UTC","SGP4","2013-12-14T20:43:37.892064","14.67957078","0.00073190","98.0504","4.1906","258.9174","101.1208","0","U","39208","999","2170","0.00009569300000","0.00000500","0.0000000000000","7045.738","98.095","672.760","662.447","PAYLOAD","LARGE","PRC","2013-07-19","TSC","","1598256","94616022","0 PAYLOAD A","1 39208U 13037A   13348.86363301  .00000500  00000-0  95693-4 0  9996","2 39208 098.0504 004.1906 0007319 258.9174 101.1208 14.67957078 21703"
"2.0","GENERATED VIA SPACE-TRACK.ORG API","2013-12-15T07:34:12","18 SPCS","PAYLOAD B","2013-037B","EARTH","TEME","UTC","SGP4","2013-12-15T03:36:33.103295","14.67319070","0.00033930","98.0500","4.2787","246.0447","114.0406","0","U","39209","999","2172","0.00014232000000","0.00000755","0.0000000000000","7047.781","98.138","672.037","667.254","PAYLOAD","LARGE","PRC","2013-07-19","TSC","","1598546","94621074","0 PAYLOAD B","1 39209U 13037B   13349.15038314  .00000755  00000-0  14232-3 0  9994","2 39209 098.0500 004.2787 0003393 246.0447 114.0406 14.67319070 21726"
